NORAD_CAT_ID,OBJECT_NAME,OBJECT_TYPE,EPOCH,MEAN_MOTION,ECCENTRICITY,INCLINATION,RA_OF_ASC_NODE,ARG_OF_PERICENTER,MEAN_ANOMALY,BSTAR,MEAN_MOTION_DOT,MEAN_MOTION_DDOT,TLE_LINE0,TLE_LINE1,TLE_LINE2,SEMIMAJOR_AXIS,PERIOD,APOGEE,PERIGEE,DECAYED
52138.0,STARLINK-3723,PAYLOAD,2022-09-22 22:22:32,15.08831389,0.0001710999999999,53.2204,342.3406,55.1979,304.9174,2.7079e-05,1.43e-06,0.0,0 STARLINK-3723,1 52138U 22029BC  22265.93231502  .00000143  00000-0  27079-4 0  9993,2 52138  53.2204 342.3406 0001711  55.1979 304.9174 15.08831389 30158,6917.906999999997,95.438,540.955,538.5880000000002,0.0
52138.0,STARLINK-3723,PAYLOAD,2022-09-23 11:05:36,15.08902077,0.0001258,53.2206,339.9618,50.7993,309.3111,-0.00077252,-0.00012582,0.0,0 STARLINK-3723,1 52138U 22029BC  22266.46222321 -.00012582  00000-0 -77252-3 0  9990,2 52138  53.2206 339.9618 0001258  50.7993 309.3111 15.08902077 30232,6917.691,95.434,540.4259999999998,538.685,0.0
52138.0,STARLINK-3723,PAYLOAD,2022-09-23 12:40:58,15.0889737,0.0001513,53.2207,339.666,46.8641,313.2477,-0.00061508,-0.00010079,0.0,0 STARLINK-3723,1 52138U 22029BC  22266.52845913 -.00010079  00000-0 -61508-3 0  9991,2 52138  53.2207 339.6660 0001513  46.8641 313.2477 15.08897370 30246,6917.705,95.434,540.617,538.523,0.0
52138.0,STARLINK-3723,PAYLOAD,2022-09-23 17:27:08,15.08845577,0.000186,53.2205,338.7732,56.8288,303.2882,0.00010927,1.452e-05,0.0,0 STARLINK-3723,1 52138U 22029BC  22266.72718364  .00001452  00000-0  10927-3 0  9994,2 52138  53.2205 338.7732 0001860  56.8288 303.2882 15.08845577 30271,6917.863,95.437,541.015,538.442,0.0
52138.0,STARLINK-3723,PAYLOAD,2022-09-24 10:56:23,15.08835151,0.0001395,53.22,335.501,70.212,289.9022,-9.0839e-06,-4.32e-06,0.0,0 STARLINK-3723,1 52138U 22029BC  22267.45583165 -.00000432  00000-0 -90839-5 0  9995,2 52138  53.2200 335.5010 0001395  70.2120 289.9022 15.08835151 30383,6917.895,95.438,540.725,538.795,0.0
52138.0,STARLINK-3723,PAYLOAD,2022-09-25 10:47:10,15.08852186,0.0001732,53.2204,331.0409,62.3563,297.7605,3.5531e-05,2.78e-06,0.0,0 STARLINK-3723,1 52138U 22029BC  22268.44942202  .00000278  00000-0  35531-4 0  9999,2 52138  53.2204 331.0409 0001732  62.3563 297.7605 15.08852186 30536,6917.843000000003,95.437,540.906,538.51,0.0
52138.0,STARLINK-3723,PAYLOAD,2022-09-25 13:57:56,15.08847018,0.0002012,53.22,330.4508,48.2,311.9164,1.5744e-05,-3.8e-07,0.0,0 STARLINK-3723,1 52138U 22029BC  22268.58190623 -.00000038  00000-0  15744-4 0  9995,2 52138  53.2200 330.4508 0002012  48.2000 311.9164 15.08847018 30555,6917.859,95.437,541.116,538.332,0.0
52138.0,STARLINK-3723,PAYLOAD,2022-09-26 07:27:11,15.08830638,0.00018,53.2211,327.1824,64.8024,295.3155,2.3555e-05,8.7e-07,0.0,0 STARLINK-3723,1 52138U 22029BC  22269.31055493  .00000087  00000-0  23555-4 0  9994,2 52138  53.2211 327.1824 0001800  64.8024 295.3155 15.08830638 30662,6917.909000000002,95.438,541.019,538.529,0.0
52138.0,STARLINK-3723,PAYLOAD,2022-09-26 09:02:35,15.08831256,0.0001509,53.2204,326.8783,53.8512,306.262,-3.6923e-05,-8.75e-06,0.0,0 STARLINK-3723,1 52138U 22029BC  22269.37679586 -.00000875  00000-0 -36923-4 0  9995,2 52138  53.2204 326.8783 0001509  53.8512 306.2620 15.08831256 30677,6917.906999999997,95.438,540.816,538.7280000000002,0.0
52138.0,STARLINK-3723,PAYLOAD,2022-09-26 13:48:44,15.08828113,0.0001619,53.2198,325.9876,51.5884,308.5253,-1.9891e-05,-6.04e-06,0.0,0 STARLINK-3723,1 52138U 22029BC  22269.57551888 -.00000604  00000-0 -19891-4 0  9996,2 52138  53.2198 325.9876 0001619  51.5884 308.5253 15.08828113 30700,6917.917,95.438,540.9019999999998,538.6619999999998,0.0
52138.0,STARLINK-3723,PAYLOAD,2022-09-27 10:28:45,15.08837073,0.0001517,53.2205,322.1216,50.5729,309.5397,-9.9573e-05,-1.872e-05,0.0,0 STARLINK-3723,1 52138U 22029BC  22270.43663846 -.00001872  00000-0 -99573-4 0  9994,2 52138  53.2205 322.1216 0001517  50.5729 309.5397 15.08837073 30839,6917.889,95.438,540.804,538.705,0.0
52138.0,STARLINK-3723,PAYLOAD,2022-09-27 15:14:55,15.088353,0.0001515,53.2202,321.2291,51.6582,308.4546,-0.00010223,-1.914e-05,0.0,0 STARLINK-3723,1 52138U 22029BC  22270.63536014 -.00001914  00000-0 -10223-3 0  9993,2 52138  53.2202 321.2291 0001515  51.6582 308.4546 15.08835300 30864,6917.895,95.438,540.808,538.712,0.0
52138.0,STARLINK-3723,PAYLOAD,2022-09-28 11:54:55,15.08832859,0.000165,53.2194,317.3644,50.5925,309.5213,0.0002566,3.797e-05,0.0,0 STARLINK-3723,1 52138U 22029BC  22271.49647011  .00003797  00000-0  25660-3 0  9998,2 52138  53.2194 317.3644 0001650  50.5925 309.5213 15.08832859 30994,6917.901999999999,95.438,540.909,538.626,0.0
52138.0,STARLINK-3723,PAYLOAD,2022-09-28 13:30:18,15.08836272,0.0001643,53.2194,317.067,50.3239,309.7898,0.00022132,3.236e-05,0.0,0 STARLINK-3723,1 52138U 22029BC  22271.56270942  .00003236  00000-0  22132-3 0  9990,2 52138  53.2194 317.0670 0001643  50.3239 309.7898 15.08836272 31005,6917.892,95.438,540.893,538.62,0.0
52138.0,STARLINK-3723,PAYLOAD,2022-09-29 10:10:20,15.088212900000002,0.0001819,53.2195,313.2019,47.0296,313.0849,-5.3217e-05,-1.134e-05,0.0,0 STARLINK-3723,1 52138U 22029BC  22272.42384947 -.00001134  00000-0 -53217-4 0  9993,2 52138  53.2195 313.2019 0001819  47.0296 313.0849 15.08821290 31134,6917.938,95.439,541.061,538.544,0.0
52138.0,STARLINK-3723,PAYLOAD,2022-09-29 11:45:44,15.08818416,0.0001805,53.2195,312.9059,45.624,314.49,-8.6859e-05,-1.669e-05,0.0,0 STARLINK-3723,1 52138U 22029BC  22272.49009329 -.00001669  00000-0 -86859-4 0  9999,2 52138  53.2195 312.9059 0001805  45.6240 314.4900 15.08818416 31142,6917.946,95.439,541.06,538.563,0.0
52138.0,STARLINK-3723,PAYLOAD,2022-09-30 11:36:30,15.08857253,0.0001991,53.2191,308.4452,43.9995,316.1155,-0.00043146,-7.152e-05,0.0,0 STARLINK-3723,1 52138U 22029BC  22273.48369105 -.00007152  00000-0 -43146-3 0  9994,2 52138  53.2191 308.4452 0001991  43.9995 316.1155 15.08857253 31298,6917.828,95.436,541.07,538.315,0.0
52138.0,STARLINK-3723,PAYLOAD,2022-09-30 14:47:17,15.08829716,0.0002266,53.2191,307.8504,43.0843,317.0326,1.5168e-05,-4.7e-07,0.0,0 STARLINK-3723,1 52138U 22029BC  22273.61617491 -.00000047  00000-0  15168-4 0  9992,2 52138  53.2191 307.8504 0002266  43.0843 317.0326 15.08829716 31314,6917.9119999999975,95.438,541.344,538.2090000000002,0.0
52138.0,STARLINK-3723,PAYLOAD,2022-09-30 19:33:26,15.08838835,0.000183,53.2191,306.9578,48.4678,311.6471,-5.8067e-05,-1.212e-05,0.0,0 STARLINK-3723,1 52138U 22029BC  22273.81489073 -.00001212  00000-0 -58067-4 0  9998,2 52138  53.2191 306.9578 0001830  48.4678 311.6471 15.08838835 31342,6917.884,95.438,541.015,538.4830000000002,0.0
52138.0,STARLINK-3723,PAYLOAD,2022-10-01 11:27:16,15.08867136,0.0001996999999999,53.2189,303.9844,48.1,312.0162,-0.00016665,-2.942e-05,0.0,0 STARLINK-3723,1 52138U 22029BC  22274.47727711 -.00002942  00000-0 -16665-3 0  9993,2 52138  53.2189 303.9844 0001997  48.1000 312.0162 15.08867136 31441,6917.797,95.436,541.044,538.281,0.0
52138.0,STARLINK-3723,PAYLOAD,2022-10-01 19:24:13,15.08837072,0.0001927,53.2188,302.4969,50.1814,309.9348,0.00022972,3.369e-05,0.0,0 STARLINK-3723,1 52138U 22029BC  22274.80848391  .00003369  00000-0  22972-3 0  9998,2 52138  53.2188 302.4969 0001927  50.1814 309.9348 15.08837072 31493,6917.889,95.438,541.087,538.4209999999998,0.0
52138.0,STARLINK-3723,PAYLOAD,2022-10-02 01:45:45,15.08840872,0.0001954,53.2188,301.3077,51.73,308.3867,0.00010529,1.388e-05,0.0,0 STARLINK-3723,1 52138U 22029BC  22275.07344735  .00001388  00000-0  10529-3 0  9995,2 52138  53.2188 301.3077 0001954  51.7300 308.3867 15.08840872 31534,6917.878000000002,95.437,541.094,538.391,0.0
52138.0,STARLINK-3723,PAYLOAD,2022-10-02 08:07:18,15.08841791,0.0001908,53.2189,300.1178,52.2825,307.834,0.00010155,1.328e-05,0.0,0 STARLINK-3723,1 52138U 22029BC  22275.33840643  .00001328  00000-0  10155-3 0  9992,2 52138  53.2189 300.1178 0001908  52.2825 307.8340 15.08841791 31576,6917.875,95.437,541.06,538.42,0.0
52138.0,STARLINK-3723,PAYLOAD,2022-10-02 19:15:00,15.08835544,0.0001745,53.218,298.0337,58.9869,301.1295,4.5122e-05,4.3e-06,0.0,0 STARLINK-3723,1 52138U 22029BC  22275.80209200  .00000430  00000-0  45122-4 0  9998,2 52138  53.2180 298.0337 0001745  58.9869 301.1295 15.08835544 31642,6917.894,95.438,540.966,538.552,0.0
52138.0,STARLINK-3723,PAYLOAD,2022-10-03 04:47:18,15.08849499,0.0001882,53.2172,296.2512,51.5675,308.5486,3.3784e-05,2.5e-06,0.0,0 STARLINK-3723,1 52138U 22029BC  22276.19952268  .00000250  00000-0  33784-4 0  9991,2 52138  53.2172 296.2512 0001882  51.5675 308.5486 15.08849499 31708,6917.851,95.437,541.018,538.414,0.0
52138.0,STARLINK-3723,PAYLOAD,2022-10-03 11:08:50,15.08857948,0.0001873,53.2183,295.0626,50.1157,309.9999,4.3472e-05,4.04e-06,0.0,0 STARLINK-3723,1 52138U 22029BC  22276.46447527  .00000404  00000-0  43472-4 0  9994,2 52138  53.2183 295.0626 0001873  50.1157 309.9999 15.08857948 31749,6917.826,95.436,540.986,538.395,0.0
52138.0,STARLINK-3723,PAYLOAD,2022-10-03 12:44:13,15.08856494,0.0001984,53.2183,294.7647,54.7896,305.3282,5.8736e-05,6.47e-06,0.0,0 STARLINK-3723,1 52138U 22029BC  22276.53071513  .00000647  00000-0  58736-4 0  9998,2 52138  53.2183 294.7647 0001984  54.7896 305.3282 15.08856494 31752,6917.83,95.437,541.067,538.322,0.0
52138.0,STARLINK-3723,PAYLOAD,2022-10-04 07:48:51,15.08851454,0.0001962,53.2181,291.1959,54.5586,305.5589,4.4233e-05,4.16e-06,0.0,0 STARLINK-3723,1 52138U 22029BC  22277.32559167  .00000416  00000-0  44233-4 0  9993,2 52138  53.2181 291.1959 0001962  54.5586 305.5589 15.08851454 31873,6917.845,95.437,541.068,538.3530000000002,0.0
52138.0,STARLINK-3723,PAYLOAD,2022-10-04 12:35:00,15.08846544,0.0001916,53.2184,290.3042,52.9009,307.2158,-1.6215e-05,-5.46e-06,0.0,0 STARLINK-3723,1 52138U 22029BC  22277.52431546 -.00000546  00000-0 -16215-4 0  9990,2 52138  53.2184 290.3042 0001916  52.9009 307.2158 15.08846544 31900,6917.86,95.437,541.0509999999998,538.4,0.0
